{
    "links": {
        "self": "http://www.neowsapp.com/rest/v1/neo/3733299?api_key=iIulBulltgU6a56xZRHN4H3l9WmuAYTsLGpBGhQ2"
    },
    "id": "3733299",
    "neo_reference_id": "3733299",
    "name": "(2015 VY2)",
    "designation": "2015 VY2",
    "nasa_jpl_url": "http://ssd.jpl.nasa.gov/sbdb.cgi?sstr=3733299",
    "absolute_magnitude_h": 23.5,
    "estimated_diameter": {
        "kilometers": {
            "estimated_diameter_min": 0.0530340723,
            "estimated_diameter_max": 0.1185877909
        },
        "meters": {
            "estimated_diameter_min": 53.0340723319,
            "estimated_diameter_max": 118.5877908577
        },
        "miles": {
            "estimated_diameter_min": 0.0329538346,
            "estimated_diameter_max": 0.0736870142
        },
        "feet": {
            "estimated_diameter_min": 173.9963058693,
            "estimated_diameter_max": 389.0675677576
        }
    },
    "is_potentially_hazardous_asteroid": false,
    "close_approach_data": [
        {
            "close_approach_date": "2015-11-11",
            "close_approach_date_full": "2015-Nov-11 22:02",
            "epoch_date_close_approach": 1447279320000,
            "relative_velocity": {
                "kilometers_per_second": "18.3779339822",
                "kilometers_per_hour": "66160.5623358631",
                "miles_per_hour": "41109.6005247478"
            },
            "miss_distance": {
                "astronomical": "0.1241233096",
                "lunar": "48.2839674344",
                "kilometers": "18568582.733510552",
                "miles": "11537982.2872555376"
            },
            "orbiting_body": "Earth"
        },
        {
            "close_approach_date": "2016-02-01",
            "close_approach_date_full": "2016-Feb-01 23:47",
            "epoch_date_close_approach": 1454370420000,
            "relative_velocity": {
                "kilometers_per_second": "25.2916643685",
                "kilometers_per_hour": "91049.9917265874",
                "miles_per_hour": "56574.9240258898"
            },
            "miss_distance": {
                "astronomical": "0.1139889225",
                "lunar": "44.3416908525",
                "kilometers": "17052500.009595075",
                "miles": "10595932.166059035"
            },
            "orbiting_body": "Venus"
        }
    ],
    "orbital_data": {
        "orbit_id": "5",
        "orbit_determination_date": "2017-04-06 08:30:55",
        "first_observation_date": "2015-11-06",
        "last_observation_date": "2015-11-12",
        "data_arc_in_days": 6,
        "observations_used": 31,
        "orbit_uncertainty": "9",
        "minimum_orbit_intersection": ".0674933",
        "jupiter_tisserand_invariant": "4.608",
        "epoch_osculation": "2457333.5",
        "eccentricity": ".6350228742115454",
        "semi_major_axis": "1.35157824030325",
        "inclination": "15.79107965137386",
        "ascending_node_longitude": "31.90958881598262",
        "orbital_period": "573.9317012170296",
        "perihelion_distance": ".4932951414240974",
        "perihelion_argument": "122.2424950236911",
        "aphelion_distance": "2.209861339182402",
        "perihelion_time": "2457393.588786796727",
        "mean_anomaly": "322.309168145006",
        "mean_motion": ".6272523354897723",
        "equinox": "J2000",
        "orbit_class": {
            "orbit_class_type": "APO",
            "orbit_class_description": "Near-Earth asteroid orbits which cross the Earth’s orbit similar to that of 1862 Apollo",
            "orbit_class_range": "a (semi-major axis) > 1.0 AU; q (perihelion) < 1.017 AU"
        }
    },
    "is_sentry_object": false
}